THOR 6                  
1 36033U 09058B   26119.55073339 -.00000011  00000+0  00000+0 0  9992
2 36033   0.0190 211.5207 0002053 204.8550 358.5645  1.00272945 60517
INTELSAT 14 (IS-14)     
1 36097U 09064A   26119.40842096 -.00000275  00000+0  00000+0 0  9999
2 36097   0.0153  68.7677 0002631 336.1734 274.4580  1.00271563 60119
EUTELSAT 36B            
1 36101U 09065A   26119.57002721  .00000111  00000+0  00000+0 0  9995
2 36101   0.3698  80.0046 0005999 319.0034  74.2169  1.00271323 60227
INTELSAT 15 (IS-15)     
1 36106U 09067A   26119.57687391 -.00000186  00000+0  00000+0 0  9997
2 36106   0.0131 273.4915 0002398 129.0784 107.7939  1.00271690 40744
WGS F3 (USA 211)        
1 36108U 09068A   26119.53423373  .00000063  00000+0  00000+0 0  9997
2 36108   0.3876  85.4355 0000307 351.8279 202.5659  1.00270735 46104
DIRECTV 12              
1 36131U 09075A   26119.46833765 -.00000105  00000+0  00000+0 0  9991
2 36131   0.0264 109.6752 0000268 312.6503 220.9815  1.00272559 46068
BEIDOU-2 G1             
1 36287U 10001A   26119.58776407 -.00000280  00000+0  00000+0 0  9990
2 36287   4.1820  60.5432 0003640 300.4815 208.5464  1.00268566 59688
SDO                     
1 36395U 10005A   26118.44060934 -.00000054  00000+0  00000+0 0  9998
2 36395  34.5508  87.0908 0001086  30.0564 156.1016  1.00272837 59563
INTELSAT 16 (IS-16)     
1 36397U 10006A   26119.36225286 -.00000247  00000+0  00000+0 0  9990
2 36397   0.0138 281.7300 0002175 139.1101 210.6938  1.00271601 59162
EWS-G2 (GOES 15)        
1 36411U 10008A   26119.57254056  .00000022  00000+0  00000+0 0  9999
2 36411   1.1494  83.7209 0004247  23.6099  19.5781  1.00272917 59151
ECHOSTAR 14             
1 36499U 10010A   26119.53640041 -.00000001  00000+0  00000+0 0  9995
2 36499   0.0181 260.7850 0001970 143.2009 247.7137  1.00271357 46060
SES-1                   
1 36516U 10016A   26119.51759412 -.00000116  00000+0  00000+0 0  9999
2 36516   0.0178 296.5882 0002720 104.2924 261.9296  1.00272264 58543
ASTRA 3B                
1 36581U 10021A   26119.56465387  .00000137  00000+0  00000+0 0  9999
2 36581   1.3445  84.1014 0003917 323.0107  37.1849  1.00270445 58374
COMSATBW-2              
1 36582U 10021B   26119.19072620  .00000085  00000+0  00000+0 0  9995
2 36582   0.0180 235.9847 0002797 174.3044 248.6796  1.00270164 58467
BEIDOU-2 G3             
1 36590U 10024A   26119.43312106 -.00000135  00000+0  00000+0 0  9997
2 36590   4.4027  61.7103 0008773 338.5796  52.6481  1.00270229 58288
BADR-5                  
1 36592U 10025A   26119.49373110  .00000144  00000+0  00000+0 0  9997
2 36592   0.0453 112.7812 0003442 333.2003 335.2142  1.00274425 52729
COMS 1                  
1 36744U 10032A   26119.37141413 -.00000343  00000+0  00000+0 0  9992
2 36744   4.6815  76.0074 0001175 323.9699  79.2059  1.00271576 50601
ARABSAT-5A              
1 36745U 10032B   26119.56604053  .00000152  00000+0  00000+0 0  9995
2 36745   0.0784  52.3935 0004425  13.4081  25.9874  1.00271042 58167
ECHOSTAR 15             
1 36792U 10034A   26119.53640041  .00000000  00000+0  00000+0 0  9995
2 36792   0.0122 281.3311 0002120 124.7630 245.7171  1.00272391 57836
BEIDOU-2 IGSO-1         
1 36828U 10036A   26119.06205814 -.00000064  00000+0  00000+0 0  9991
2 36828  54.2930 163.4039 0058877 224.2001 318.3940  1.00283168 57609
NILESAT 201             
1 36830U 10037A   26119.54751054 -.00000059  00000+0  00000+0 0  9994
2 36830   0.0450  97.0778 0003047 317.3243 353.2256  1.00271012 57884
RASCOM-QAF 1R           
1 36831U 10037B   26119.56049384  .00000017  00000+0  00000+0 0  9996
2 36831   0.0078 264.7973 0006593 132.0724  25.3225  1.00271107 57817
AEHF-1 (USA 214)        
1 36868U 10039A   26119.56586720  .00000150  00000+0  00000+0 0  9996
2 36868   8.1015  68.6851 0004367 318.9145  63.7196  1.00279032 53175
XM-5                    
1 37185U 10053A   26119.53718041 -.00000024  00000+0  00000+0 0  9996
2 37185   0.0614 271.2261 0003503 273.7844 110.6714  1.00270786 56994
BSAT-3B                 
1 37207U 10056B   26119.58172726 -.00000351  00000+0  00000+0 0  9996
2 37207   0.0438 235.1797 0000243 260.4972  41.1112  1.00270586 51611
BEIDOU-2 G4             
1 37210U 10057A   26119.59166409 -.00000113  00000+0  00000+0 0  9999
2 37210   3.5287  69.2212 0006191 213.9857 307.2577  1.00270470 56805
SKYTERRA 1              
1 37218U 10061A   26119.36114468 -.00000118  00000+0  00000+0 0  9990
2 37218   5.0239  50.8849 0003153  13.9575 181.1485  1.00272573 56701
HYLAS 1                 
1 37237U 10065A   26119.13490454  .00000090  00000+0  00000+0 0  9990
2 37237   5.5214  73.6057 0001670 301.2320 264.6392  1.00273606  6399
INTELSAT 17 (IS-17)     
1 37238U 10065B   26119.57306056 -.00000003  00000+0  00000+0 0  9998
2 37238   0.0151 227.9465 0002706 188.2398  73.6605  1.00273786 52762
BEIDOU-2 IGSO-2         
1 37256U 10068A   26119.36673412 -.00000229  00000+0  00000+0 0  9991
2 37256  47.6395 272.4344 0053341 211.8256 330.0139  1.00299259 56306
EUTELSAT KA-SAT 9A      
1 37258U 10069A   26119.56170719  .00000060  00000+0  00000+0 0  9990
2 37258   0.0616 355.8633 0003823 139.0846 293.7972  1.00270668 43512
HISPASAT 30W-5          
1 37264U 10070A   26119.41145431 -.00000217  00000+0  00000+0 0  9991
2 37264   0.0533  91.7766 0004445 332.1322 271.6166  1.00275250 52697
KOREASAT 6              
1 37265U 10070B   26119.39467693  .00000000  00000+0  00000+0 0  9995
2 37265   0.0216 261.3938 0002789 149.3789 108.5559  1.00270799 56282
BEIDOU-2 IGSO-3         
1 37384U 11013A   26116.76466226 -.00000208  00000+0  00000+0 0  9995
2 37384  62.3425  40.6372 0033799 188.1676   9.3705  1.00280256 55142
INTELSAT 28 (IS-28)     
1 37392U 11016A   26119.41110764 -.00000225  00000+0  00000+0 0  9994
2 37392   1.6817  83.1859 0004142 319.8501 290.6259  1.00272644 52793
YAHSAT 1A               
1 37393U 11016B   26119.57037388  .00000000  00000+0  00000+0 0  9992
2 37393   0.0128 237.9555 0003349 170.0222  67.3690  1.00269518 41926
SBIRS GEO-1 (USA 230)   
1 37481U 11019A   26119.49893112  .00000100  00000+0  00000+0 0  9990
2 37481   4.4305  53.1220 0002209 340.4426  55.3137  1.00272255 54917
TELSTAR 14R             
1 37602U 11021A   26119.40486760  .00000000  00000+0  00000+0 0  9995
2 37602   0.0171 264.8665 0002502 129.3640 265.8850  1.00270761 55345
GSAT-8                  
1 37605U 11022A   26119.57089389  .00000085  00000+0  00000+0 0  9996
2 37605   2.0072  82.3879 0004461 228.9626 166.7589  1.00271227 52732
ST-2                    
1 37606U 11022B   26119.57739391 -.00000212  00000+0  00000+0 0  9995
2 37606   0.0129 258.4385 0002099 146.1324 108.8191  1.00269030 54796
ZHONGXING-10            
1 37677U 11026A   26119.57696058 -.00000189  00000+0  00000+0 0  9992
2 37677   0.9229  84.6889 0002997 322.8542 103.2487  1.00272452 54513
SES-3                   
1 37748U 11035A   26119.53952042 -.00000102  00000+0  00000+0 0  9990
2 37748   1.2024  83.5629 0003224 318.9274 266.2392  1.00271940 54102
KAZSAT-2                
1 37749U 11035B   26119.50577781 -.00000200  00000+0  00000+0 0  9990
2 37749   0.0439 281.8719 0001515 193.3604  10.8209  1.00276914 52919
BEIDOU-2 IGSO-4         
1 37763U 11038A   26118.60233448  .00000007  00000+0  00000+0 0  9992
2 37763  54.5885 166.1276 0158396 231.7989 127.2716  1.00255888 54151
ASTRA 1N                
1 37775U 11041A   26119.56378719  .00000119  00000+0  00000+0 0  9990
2 37775   0.1047  52.7570 0005754   8.9583  17.9619  1.00271438 44044
BSAT-3C (JCSAT-110R)    
1 37776U 11041B   26119.51045782  .00000000  00000+0  00000+0 0  9996
2 37776   0.0229  48.2914 0000471  51.9086  51.0076  1.00267583 49985
PAKSAT-1R               
1 37779U 11042A   26119.56751388  .00000153  00000+0  00000+0 0  9990
2 37779   0.5640  84.9116 0003267 330.2705  44.6937  1.00277032 53998
SES-2                   
1 37809U 11049A   26119.54272709 -.00000197  00000+0  00000+0 0  9993
2 37809   0.0578  77.5987 0002909 320.5036 287.7831  1.00272464 53472
ARABSAT-5C              
1 37810U 11049B   26119.56396052  .00000122  00000+0  00000+0 0  9992
2 37810   0.0542   1.4996 0002784  51.8512  27.2258  1.00273550 53551
EUTELSAT 7 WEST A       
1 37816U 11051A   26119.54751054 -.00000061  00000+0  00000+0 0  9999
2 37816   0.0867  40.8519 0002929  22.3044 344.1635  1.00271916 53384
QUETZSAT 1              
1 37826U 11054A   26119.54472044 -.00000243  00000+0  00000+0 0  9994
2 37826   0.0570  71.6288 0002746 343.8315 281.1414  1.00271544 49387
INTELSAT 18 (IS-18)     
1 37834U 11056A   26119.38655199  .00000051  00000+0  00000+0 0  9997
2 37834   0.0132 266.5952 0001920 130.8112 139.0997  1.00272479 53329
EUTELSAT 16A            
1 37836U 11057A   26119.56318052  .00000103  00000+0  00000+0 0  9992
2 37836   0.0569  16.9350 0005749  27.2151  32.1110  1.00271901  6854
VIASAT-1                
1 37843U 11059A   26119.53718041 -.00000025  00000+0  00000+0 0  9995
2 37843   0.0200 260.9795 0002350 142.7214 252.0810  1.00271052 46835
ASIASAT 7               
1 37933U 11069A   26119.58086059 -.00000335  00000+0  00000+0 0  9992
2 37933   0.0189 260.7852 0001712 138.2022 133.1558  1.00269391 44379
BEIDOU-2 IGSO-5         
1 37948U 11073A   26118.89190579 -.00000221  00000+0  00000+0 0  9993
2 37948  47.7700 272.1515 0110729 220.7090 138.5427  1.00260002 52649
LUCH-5A                 
1 37951U 11074B   26119.59305076 -.00000047  00000+0  00000+0 0  9992
2 37951   8.6332  74.5081 0002796 310.5103 212.9693  1.00273585 52562
NIGCOMSAT 1R            
1 38014U 11077A   26119.56838054  .00000143  00000+0  00000+0 0  9996
2 38014   0.0301 241.3897 0002672 111.6933 111.6062  1.00276373 52460
WGS F4 (USA 233)        
1 38070U 12003A   26119.50621115 -.00000216  00000+0  00000+0 0  9992
2 38070   0.0185 229.9624 0000242 135.3824 122.7446  1.00271038 43669
